ONEWEB-0029             
1 45445U 20020X   24264.38298028 -.00001018  00000+0 -29075-2 0  9990
2 45445  87.8965 147.4929 0001557  76.9470 283.1832 13.11425001219450
ONEWEB-0068             
1 45446U 20020Y   24264.43471033  .00000557  00000+0  15366-2 0  9999
2 45446  87.8965 147.4684 0001609  79.0293 281.1016 13.11417778219403
ONEWEB-0046             
1 45447U 20020Z   24264.43217148  .00000465  00000+0  12766-2 0  9994
2 45447  87.8964 147.4812 0001588  66.0449 294.0845 13.11416704219413
ONEWEB-0063             
1 45448U 20020AA  24264.38468948 -.00000078  00000+0 -25577-3 0  9992
2 45448  87.8964 147.4900 0001766  65.1674 294.9637 13.11414872219490
ONEWEB-0019             
1 45449U 20020AB  24264.43556283  .00000617  00000+0  17047-2 0  9998
2 45449  87.8967 147.4880 0001914  72.7126 287.4211 13.11416590219340
ONEWEB-0094             
1 45450U 20020AC  24264.07555542  .00003942  00000+0  10111-1 0  9995
2 45450  87.9128 132.3515 0001728  77.9309 282.2016 13.17684680222672
ONEWEB-0087             
1 45451U 20020AD  24264.62360396 -.00000382  00000+0 -11128-2 0  9995
2 45451  87.8958 147.4108 0001472  75.5831 284.5460 13.11413468219412
ONEWEB-0082             
1 45452U 20020AE  24264.39146006 -.00000343  00000+0 -10040-2 0  9999
2 45452  87.8964 147.4651 0001771  77.8671 282.2655 13.11413625219474
ONEWEB-0050             
1 45453U 20020AF  24264.54881758  .00008301  00000+0  83613-3 0  9994
2 45453  88.0096   3.9871 0004982 100.1473 260.0318 14.91057435245821
ONEWEB-0034             
1 45454U 20020AG  24264.41350943 -.00000222  00000+0 -66331-3 0  9992
2 45454  87.8964 147.4797 0001697  76.1775 283.9542 13.11417340219393
ONEWEB-0060             
1 45455U 20020AH  24264.07455998  .00000061  00000+0  13530-3 0  9993
2 45455  87.8968 147.5652 0001769  67.9005 292.2311 13.11415946219301
ONEWEB-0086             
1 45456U 20020AJ  24264.43895248  .00000503  00000+0  13848-2 0  9992
2 45456  87.8962 147.4754 0001337  81.1352 278.9928 13.11415711219419
ONEWEB-0088             
1 45457U 20020AK  24264.41690686 -.00000157  00000+0 -47763-3 0  9991
2 45457  87.8959 147.4405 0001650  74.7761 285.3549 13.11417923219349
ONEWEB-0102             
1 47258U 20100A   24264.30789328 -.00000130  00000+0 -39774-3 0  9995
2 47258  87.8869 117.1350 0001851  81.8498 278.2841 13.12441141181458
ONEWEB-0109             
1 47259U 20100B   24264.31600331 -.00000409  00000+0 -11721-2 0  9993
2 47259  87.8871 117.0987 0001896  81.9888 278.1455 13.12440936181282
ONEWEB-0110             
1 47260U 20100C   24264.34195752  .00000216  00000+0  56641-3 0  9999
2 47260  87.8864 117.0939 0001817  86.9536 273.1800 13.12441884181452
ONEWEB-0111             
1 47261U 20100D   24264.29654404  .00000078  00000+0  18219-3 0  9993
2 47261  87.8870 117.1040 0001772  80.3622 279.7706 13.12439989181289
ONEWEB-0114             
1 47262U 20100E   24264.32736790 -.00000310  00000+0 -89705-3 0  9996
2 47262  87.8867 117.1088 0002104  81.3405 278.7962 13.12444819181245
ONEWEB-0117             
1 47263U 20100F   24264.31924554 -.00005304  00000+0 -14782-1 0  9992
2 47263  87.8870 117.0901 0001892  76.7964 283.3376 13.12466741181254
ONEWEB-0118             
1 47264U 20100G   24264.04675133  .00000482  00000+0  13042-2 0  9998
2 47264  87.8868 117.1479 0001909  71.3861 288.7475 13.12443431181417
ONEWEB-0119             
1 47265U 20100H   24264.30302995 -.00000083  00000+0 -26493-3 0  9995
2 47265  87.8870 117.1358 0001759  84.8034 275.3296 13.12440929181424
ONEWEB-0120             
1 47266U 20100J   24264.32588106 -.00000491  00000+0 -14007-2 0  9998
2 47266  87.8870 117.1213 0001867  79.0178 281.1161 13.12441358181456
ONEWEB-0121             
1 47267U 20100K   24264.31438356 -.00000234  00000+0 -68612-3 0  9996
2 47267  87.8868 117.1099 0001668  86.2935 273.8385 13.12442202181361
ONEWEB-0122             
1 47268U 20100L   24264.30937843 -.00000198  00000+0 -58617-3 0  9994
2 47268  87.8868 117.1162 0001834  86.1275 274.0063 13.12441448181271
ONEWEB-0123             
1 47269U 20100M   24264.30465013 -.00000192  00000+0 -56821-3 0  9999
2 47269  87.8870 117.1340 0001766  78.1325 282.0001 13.12440573181419
ONEWEB-0124             
1 47270U 20100N   24264.29329888  .00000254  00000+0  67040-3 0  9990
2 47270  87.8869 117.1329 0001553  88.6544 271.4762 13.12440369181294
ONEWEB-0125             
1 47271U 20100P   24264.34683407  .00000366  00000+0  98298-3 0  9990
2 47271  87.8868 117.0828 0001502  73.9699 286.1595 13.12442470181369
ONEWEB-0126             
1 47272U 20100Q   24264.60067272  .00000163  00000+0  41887-3 0  9993
2 47272  87.8866 117.0343 0001869  81.0138 279.1202 13.12439594181465
ONEWEB-0127             
1 47273U 20100R   24264.33385128 -.00000070  00000+0 -23026-3 0  9991
2 47273  87.8869 117.1188 0001860  83.2446 276.8894 13.12444660181454
ONEWEB-0128             
1 47274U 20100S   24264.35656528  .00000410  00000+0  11052-2 0  9990
2 47274  87.8876 117.1238 0001782  93.4265 266.7068 13.12443488181474
ONEWEB-0129             
1 47275U 20100T   24264.33547818  .00000032  00000+0  53514-4 0  9991
2 47275  87.8869 117.0888 0003305  72.7125 287.4365 13.12442207181406
ONEWEB-0130             
1 47276U 20100U   24264.36305343  .00000368  00000+0  98798-3 0  9994
2 47276  87.8867 117.0896 0001863  85.4250 274.7092 13.12443197181372
ONEWEB-0131             
1 47277U 20100V   24264.28357230  .00000431  00000+0  11628-2 0  9995
2 47277  87.8870 117.1234 0001710  85.9497 274.1827 13.12442596181409
ONEWEB-0132             
1 47278U 20100W   24264.54147261 -.00000342  00000+0 -98483-3 0  9994
2 47278  87.8871 117.0733 0001429  83.6275 276.5016 13.12433118181338
ONEWEB-0133             
1 47279U 20100X   24264.32898879 -.00000175  00000+0 -52313-3 0  9995
2 47279  87.8864 117.1089 0001705  87.7564 272.3760 13.12442524181464
ONEWEB-0134             
1 47280U 20100Y   24264.29817431  .00000064  00000+0  14237-3 0  9996
2 47280  87.8865 117.1022 0001901  87.4922 272.6424 13.12443900181433
ONEWEB-0135             
1 47281U 20100Z   24264.34521206  .00000284  00000+0  75507-3 0  9996
2 47281  87.8867 117.1144 0001985  96.6954 263.4401 13.12442265181469
ONEWEB-0136             
1 47282U 20100AA  24264.36468143  .00000237  00000+0  62266-3 0  9995
2 47282  87.8870 117.0779 0002149  88.6220 271.5155 13.12441952181397
ONEWEB-0137             
1 47283U 20100AB  24264.32247580 -.00000719  00000+0 -20330-2 0  9994
2 47283  87.8859 117.1057 0001568  86.0969 274.0338 13.12450132181291
ONEWEB-0138             
1 47284U 20100AC  24264.53012048 -.00000070  00000+0 -23024-3 0  9991
2 47284  87.8864 117.0773 0001883  83.7973 276.3370 13.12440032181403
ONEWEB-0139             
1 47285U 20100AD  24264.34048473  .00000179  00000+0  46284-3 0  9993
2 47285  87.8870 117.0894 0001783  83.5528 276.5803 13.12444100181456
ONEWEB-0140             
1 47286U 20100AE  24264.29492321  .00000213  00000+0  55770-3 0  9992
2 47286  87.8866 117.1000 0001829  84.3647 275.7690 13.12440659181410
ONEWEB-0141             
1 47287U 20100AF  24264.34020224  .00000135  00000+0  34029-3 0  9995
2 47287  87.8866 117.1038 0001690  76.1577 283.9740 13.12442365181401
ONEWEB-0142             
1 47288U 20100AG  24264.30870714 -.00000130  00000+0 -39674-3 0  9997
2 47288  87.8868 117.0909 0001894  77.3871 282.7469 13.12445338181392
ONEWEB-0143             
1 47289U 20100AH  24264.33871327  .00000161  00000+0  41271-3 0  9990
2 47289  87.8867 117.1065 0001663  83.4545 276.6773 13.12444863181376
ONEWEB-0144             
1 47290U 20100AJ  24264.31114325 -.00001452  00000+0 -40710-2 0  9990
2 47290  87.8866 117.0950 0002229  76.2910 283.8467 13.12448176181296
ONEWEB-0145             
1 47291U 20100AK  24264.35819610  .00000342  00000+0  91657-3 0  9996
2 47291  87.8868 117.1099 0001892  83.3634 276.7710 13.12442417181497
ONEWEB-0146             
1 47292U 20100AL  24264.35493941  .00000431  00000+0  11632-2 0  9995
2 47292  87.8865 117.0954 0001328  88.2495 271.8786 13.12444103181401
ONEWEB-0147             
1 47293U 20100AM  24264.32087098 -.00000330  00000+0 -95191-3 0  9998
2 47293  87.8865 117.0920 0001947  89.4237 270.7114 13.12442097181299
ONEWEB-0115             
1 48042U 21025A   24264.46367341 -.00000277  00000+0 -79236-3 0  9997
2 48042  87.8845  86.5238 0001641  92.3823 267.7494 13.13466833170275
ONEWEB-0152             
1 48043U 21025B   24264.47638771 -.00000063  00000+0 -20713-3 0  9996
2 48043  87.8850  86.5230 0001664  93.1685 266.9635 13.13469838170236
ONEWEB-0153             
1 48044U 21025C   24264.22563432 -.00000230  00000+0 -66534-3 0  9998
2 48044  87.8854  86.5631 0001750  88.0641 272.0688 13.13469625170192
ONEWEB-0154             
1 48045U 21025D   24264.45100524 -.00000143  00000+0 -42597-3 0  9999
2 48045  87.8851  86.5263 0001713  91.3102 268.8223 13.13469319170186
ONEWEB-0116             
1 48046U 21025E   24264.26372350  .00000423  00000+0  11226-2 0  9990
2 48046  87.8852  86.5359 0001575  93.0862 267.0448 13.13468901170302
ONEWEB-0150             
1 48047U 21025F   24264.46685363 -.00000878  00000+0 -24394-2 0  9990
2 48047  87.8839  86.5081 0001877  86.8153 273.3191 13.13470113170222
ONEWEB-0107             
1 48048U 21025G   24264.46846318  .00000489  00000+0  13041-2 0  9993
2 48048  87.8843  86.5079 0002047  83.7793 276.3570 13.13468574170201
ONEWEB-0101             
1 48049U 21025H   24264.20341316  .00000282  00000+0  73605-3 0  9998
2 48049  87.8854  86.5812 0001812  89.5229 270.6108 13.13466977170148
ONEWEB-0113             
1 48050U 21025J   24264.48590209  .00000056  00000+0  11809-3 0  9994
2 48050  87.8849  86.5055 0001695  90.6892 269.4431 13.13469806170263
ONEWEB-0112             
1 48051U 21025K   24264.47321216 -.00000309  00000+0 -88038-3 0  9995
2 48051  87.8844  86.5025 0001742  88.7723 271.3606 13.13469859170275
